[{"OBJECT_NAME":"APRIZESAT 5","OBJECT_ID":"2011-044E","EPOCH":"2026-03-09T18:08:06.904608","MEAN_MOTION":14.80858423,"ECCENTRICITY":0.00516624,"INCLINATION":98.2397,"RA_OF_ASC_NODE":359.0282,"ARG_OF_PERICENTER":324.2706,"MEAN_ANOMALY":35.5052,"EPHEMERIS_TYPE":0,"CLASSIFICATION_TYPE":"U","NORAD_CAT_ID":37792,"ELEMENT_SET_NO":999,"REV_AT_EPOCH":78407,"BSTAR":0.00024774407,"MEAN_MOTION_DOT":1.897e-5,"MEAN_MOTION_DDOT":0},{"OBJECT_NAME":"COSMOS 249 DEB","OBJECT_ID":"1968-091AE","EPOCH":"2026-03-09T17:26:31.463520","MEAN_MOTION":13.99879612,"ECCENTRICITY":0.04806637,"INCLINATION":62.7505,"RA_OF_ASC_NODE":261.8098,"ARG_OF_PERICENTER":229.6626,"MEAN_ANOMALY":126.1503,"EPHEMERIS_TYPE":0,"CLASSIFICATION_TYPE":"U","NORAD_CAT_ID":3679,"ELEMENT_SET_NO":999,"REV_AT_EPOCH":77050,"BSTAR":0.0010738877,"MEAN_MOTION_DOT":4.218e-5,"MEAN_MOTION_DDOT":0}]
